CENTAURI-6              
1 59451U 24066K   26068.32290132  .00007311  00000+0  52686-3 0  9997
2 59451  45.6063  55.7055 0002534 285.4438  74.6166 15.04786474105074
STARLINK-34805          
1 65071U 25165R   26068.72881737  .00000932  00000+0  68802-4 0  9994
2 65071  97.6032 147.2278 0000704 127.4817 232.6474 15.05650108 34792
