[{"OBJECT_NAME":"CENTAURI-6","OBJECT_ID":"2024-066K","EPOCH":"2026-03-09T07:44:58.674048","MEAN_MOTION":15.04786474,"ECCENTRICITY":0.00025343,"INCLINATION":45.6063,"RA_OF_ASC_NODE":55.7055,"ARG_OF_PERICENTER":285.4438,"MEAN_ANOMALY":74.6166,"EPHEMERIS_TYPE":0,"CLASSIFICATION_TYPE":"U","NORAD_CAT_ID":59451,"ELEMENT_SET_NO":999,"REV_AT_EPOCH":10507,"BSTAR":0.00052686271,"MEAN_MOTION_DOT":7.311e-5,"MEAN_MOTION_DDOT":0},{"OBJECT_NAME":"STARLINK-34805","OBJECT_ID":"2025-165R","EPOCH":"2026-03-09T17:29:29.820768","MEAN_MOTION":15.05650108,"ECCENTRICITY":7.037e-5,"INCLINATION":97.6032,"RA_OF_ASC_NODE":147.2278,"ARG_OF_PERICENTER":127.4817,"MEAN_ANOMALY":232.6474,"EPHEMERIS_TYPE":0,"CLASSIFICATION_TYPE":"U","NORAD_CAT_ID":65071,"ELEMENT_SET_NO":999,"REV_AT_EPOCH":3479,"BSTAR":6.8802336e-5,"MEAN_MOTION_DOT":9.32e-6,"MEAN_MOTION_DDOT":0}]
